GLOBALSTAR M075 [+]     
1 37192U 10054E   23226.33515288 -.00000091  00000+0  71957-4 0  9995
2 37192  51.9950  70.2230 0000576  77.8889 334.3634 12.62260259591402
GLOBALSTAR M073 [+]     
1 37193U 10054F   23226.04468948 -.00000095  00000+0  50834-4 0  9999
2 37193  52.0075 344.4149 0000729 104.7213  66.2874 12.62266330592874
GLOBALSTAR M083 [+]     
1 37739U 11033A   23225.97873882 -.00000068  00000+0  19762-3 0  9995
2 37739  51.9852 294.2684 0000700 137.0261  34.9155 12.62268612562199
GLOBALSTAR M088 [+]     
1 37740U 11033B   23226.66487782 -.00000114  00000+0 -54599-4 0  9995
2 37740  51.9707 198.2331 0000117 182.2418 349.0230 12.62264820557757
GLOBALSTAR M091 [+]     
1 37741U 11033C   23226.09033076 -.00000113  00000+0 -53364-4 0  9994
2 37741  51.9987 162.3350 0000087  83.5801 295.0393 12.62265547558440
GLOBALSTAR M085 [+]     
1 37742U 11033D   23226.10540951 -.00000093  00000+0  59618-4 0  9996
2 37742  51.9858 113.9232 0000476  74.0334  73.9251 12.62266308559181
GLOBALSTAR M081 [+]     
1 37743U 11033E   23226.13572146 -.00000093  00000+0  57508-4 0  9997
2 37743  51.9954 116.2035 0000338  40.7127 124.3634 12.62270040559222
GLOBALSTAR M089 [+]     
1 37744U 11033F   23226.30814806 -.00000088  00000+0  88708-4 0  9999
2 37744  51.9933  70.0325 0000830  55.8021 353.1939 12.62266128559969
